satname,norad_id,inclination_deg,eccentricity,mean_motion_rev_per_day,perigee_km,apogee_km,l1,l2
STARLINK-1008,44714,53.15,0.0004743,15.53643001,402.88236516934376,409.3178925097618,1 44714U 19074B   26196.77557531  .00043591  00000+0  67455-3 0  9996,2 44714  53.1500 291.4766 0004743 324.0088  36.0603 15.53643001368658
STARLINK-1012,44718,53.1544,0.0005044,15.54062797,401.45697892720364,408.29968479398485,1 44718U 19074F   26196.89391761  .00042164  00000+0  64291-3 0  9994,2 44718  53.1544 291.1168 0005044 329.2609  30.8106 15.54062797368663
STARLINK-1017,44723,53.0464,9.4e-05,15.34274654,462.43274629314783,463.7188943033643,1 44723U 19074L   26196.62535043  .00022275  00000+0  67103-3 0  9990,2 44723  53.0464 296.3939 0000940  87.7087 272.4022 15.34274654368541
STARLINK-1020,44725,53.1561,0.0004502,15.59996239,384.6219898177669,390.7139205994363,1 44725U 19074N   26196.71603407  .00070910  00000+0  85999-3 0  9994,2 44725  53.1561 314.5042 0004502 281.9369  78.1140 15.59996239368302
STARLINK-1036,44741,53.0418,0.0003624,15.77500748,335.09065925668256,339.9581706502413,1 44741U 19074AE  26196.57706622  .00061017  00000+0  36142-3 0  9993,2 44741  53.0418 279.2394 0003624   9.8883 350.2207 15.77500748368774
STARLINK-1039,44744,53.0615,0.0001321,15.31264014,471.1350467864386,472.9448635379922,1 44744U 19074AH  26196.66273897  .00028171  00000+0  92856-3 0  9997,2 44744  53.0615 342.4512 0001321 183.1136 176.9856 15.31264014367900
STARLINK-1042,44747,53.0394,0.0001111,15.55853173,398.92067937203865,400.42670890827685,1 44747U 19074AL  26196.27247602  .00014495  00000+0  21232-3 0  9996,2 44747  53.0394 199.7591 0001111  50.3544 309.7564 15.55853173369890
STARLINK-1043,44748,53.0483,0.0002237,15.67277415,365.18806034354475,368.2056990213159,1 44748U 19074AM  26196.57682922  .00031605  00000+0  29230-3 0  9996,2 44748  53.0483 292.0552 0002237   4.2204 355.8830 15.67277415368603
STARLINK-1046,44751,53.0465,0.0003097,15.6029762,384.7015895384193,388.8917894656979,1 44751U 19074AQ  26196.52561096  .00071646  00000+0  85894-3 0  9990,2 44751  53.0465 315.8419 0003097 256.0092 104.0576 15.60297620368266
STARLINK-1047,44752,53.0691,0.0001259,15.35499992,458.574933677457,460.2966345044915,1 44752U 19074AR  26196.45868543  .00025655  00000+0  74146-3 0  9997,2 44752  53.0691 267.8676 0001259 259.8643 100.2217 15.35499992368954
STARLINK-1048,44753,53.0428,0.0001543,15.71280809,354.1964821375095,356.2744008729578,1 44753U 19074AS  26196.48504795  .00036086  00000+0  28234-3 0  9994,2 44753  53.0428 262.9316 0001543 138.8949 221.2185 15.71280809368998
STARLINK-1063,44768,53.1546,0.0002871,15.53765683,403.79535966359435,407.69066356626354,1 44768U 19074BH  26196.85237927  .00047235  00000+0  72692-3 0  9996,2 44768  53.1546 332.1425 0002871 300.6081  59.4646 15.53765683368102
STARLINK-1067,44771,53.0401,0.0006691,15.8444047,313.42038187172784,322.3810195228016,1 44771U 19074BL  26197.00002315  .00039642  00000+0  17202-3 0  9998,2 44771  53.0401 289.0600 0006691 343.8040 177.0312 15.84440470  6012
STARLINK-1068,44772,53.0377,0.0006022,15.81739392,321.48464055934073,329.5585269576204,1 44772U 19074BM  26196.90095474  .00068488  00000+0  33377-3 0  9996,2 44772  53.0377 263.7989 0006022 354.1930   5.9021 15.81739392369014
STARLINK-1114,44927,53.0399,0.0001266,15.73660037,347.5953216378857,349.29849268317776,1 44927U 20001P   26196.93175309  .00040487  00000+0  28578-3 0  9995,2 44927  53.0399  63.0643 0001266 209.1763 150.9184 15.73660037360131
STARLINK-1123,44930,53.1396,0.0006272,15.63976696,371.94706162146304,380.41968109529535,1 44930U 20001S   26196.93275030  .00060611  00000+0  63141-3 0  9997,2 44930  53.1396  92.9771 0006272  85.3693 274.8039 15.63976696359733
STARLINK-1094,44941,53.1494,0.0005985,15.59255078,385.76116224948873,393.86239693866173,1 44941U 20001AD  26196.93426142  .00052662  00000+0  65983-3 0  9994,2 44941  53.1494  69.2334 0005985 107.3360 252.8309 15.59255078360076
STARLINK-1122,44949,53.1517,0.000574,15.58782515,387.2939775648101,395.0651529817442,1 44949U 20001AM  26196.87894556  .00031122  00000+0  40071-3 0  9992,2 44949  53.1517  70.0934 0005740  98.6443 261.5221 15.58782515360057
STARLINK-1080,44961,53.0443,0.0001728,15.71586955,353.1975943690768,355.5243456675162,1 44961U 20001AZ  26196.94912265  .00041749  00000+0  32155-3 0  9992,2 44961  53.0443  23.4793 0001728 187.3511 172.7482 15.71586955360694
STARLINK-1090,44968,53.1464,0.000446,15.5508915,398.86960010294297,404.917387303326,1 44968U 20001BG  26196.89777949  .00034676  00000+0  51109-3 0  9992,2 44968  53.1464  58.7866 0004460 107.9412 252.2086 15.55089150360210
STARLINK-1132,45044,53.1485,0.0001396,15.60465054,385.36845667533726,387.25709105219994,1 45044U 20006A   26196.80582228  .00056260  00000+0  67292-3 0  9991,2 45044  53.1485 358.7946 0001396 225.7491 134.3408 15.60465054356829
STARLINK-1131,45047,53.1528,6.69e-05,15.59445246,388.8088135777971,389.7142915041268,1 45047U 20006D   26197.00002315  .00096364  00000+0  11878-2 0  9998,2 45047  53.1528  31.5798 0000669  83.2543 136.8244 15.59445246  5935
STARLINK-1134,45048,53.0233,0.000521,15.63344435,374.4843919662344,381.5242912441863,1 45048U 20006E   26196.72313281  .00029913  00000+0  32362-3 0  9992,2 45048  53.0233 340.4603 0005210 223.2606 136.7998 15.63344435357048
STARLINK-1156,45054,53.1564,0.0003491,15.38254406,448.8869149251268,453.65520763351105,1 45054U 20006L   26196.91326276  .00031113  00000+0  82025-3 0  9994,2 45054  53.1564  42.6462 0003491 122.3771 237.7572 15.38254406356216
STARLINK-1166,45060,53.0432,4.64e-05,15.69121883,361.09752679599205,361.7229567800305,1 45060U 20006S   26196.91601459  .00035916  00000+0  30734-3 0  9995,2 45060  53.0432  11.8422 0000464 336.4286  23.6708 15.69121883356620
STARLINK-1169,45061,53.1535,0.0004515,15.41863497,437.5310206420427,443.68834889839036,1 45061U 20006T   26196.86130545  .00033488  00000+0  78313-3 0  9990,2 45061  53.1535  40.5196 0004515  97.3474 262.8045 15.41863497356249
STARLINK-1171,45062,53.0387,0.0001906,15.80415446,327.986490728269,330.54335234075825,1 45062U 20006U   26196.80248709  .00068776  00000+0  35655-3 0  9997,2 45062  53.0387 334.6141 0001906 350.8359   9.2627 15.80415446357139
STARLINK-1133,45064,53.1559,0.0003641,15.38104711,449.2274169608363,454.20091457975104,1 45064U 20006W   26196.88625297  .00031456  00000+0  83316-3 0  9990,2 45064  53.1559  19.5699 0003641 124.8369 235.2978 15.38104711356545
STARLINK-1167,45071,53.1558,0.0002419,15.40854457,441.93605642759303,445.2364061268845,1 45071U 20006AD  26196.88961694  .00033156  00000+0  80201-3 0  9991,2 45071  53.1558  17.9149 0002419  61.0638 299.0610 15.40854457356562
STARLINK-1168,45072,53.1563,0.0002964,15.38689516,447.9596675008852,452.0073773465783,1 45072U 20006AE  26196.92214708  .00037102  00000+0  96173-3 0  9994,2 45072  53.1563  19.5019 0002964 122.4154 237.7137 15.38689516356543
STARLINK-1172,45074,53.1537,0.0002063,15.41905927,439.07791087434725,441.8912741434169,1 45074U 20006AG  26196.88682330  .00032543  00000+0  76049-3 0  9995,2 45074  53.1537  16.9778 0002063  87.8577 272.2665 15.41905927356576
STARLINK-1153,45080,53.1565,0.0003663,15.40884331,440.99929498712754,445.9968248320174,1 45080U 20006AN  26196.74177289  .00035672  00000+0  86093-3 0  9995,2 45080  53.1565  18.5167 0003663  71.2654 288.8749 15.40884331356541
STARLINK-1151,45081,53.0434,0.0011249,16.0362543,256.9161391179332,271.8604925735235,1 45081U 20006AP  26196.87240441  .00310501  53909-4  47870-3 0  9999,2 45081  53.0434 318.2439 0011249 328.1855  31.8495 16.03625430357362
STARLINK-1185,45087,53.1578,0.0001877,15.5030795,414.55100072636924,417.1014545220187,1 45087U 20006AV  26196.72915450  .00065432  00000+0  11340-2 0  9999,2 45087  53.1578 356.2858 0001877 161.0477 199.0603 15.50307950356851
STARLINK-1183,45088,53.157,0.0002428,15.38002868,450.35730602864714,453.67402816378944,1 45088U 20006AW  26196.91299977  .00026839  00000+0  71523-3 0  9998,2 45088  53.1570   4.2844 0002428 145.8999 214.2162 15.38002868356756
STARLINK-1152,45096,53.033,0.0003211,15.53573503,404.12396915477166,408.48093617127233,1 45096U 20006BE  26196.53460740  .00054674  00000+0  84523-3 0  9995,2 45096  53.0330 316.5158 0003211 282.7912  77.2738 15.53573503357362
STARLINK-1184,45098,53.0523,0.0004259,15.15918313,515.2549012830887,521.1291943660244,1 45098U 20006BG  26196.80170352  .00016455  00000+0  86242-3 0  9999,2 45098  53.0523  24.2173 0004259 144.8807 215.2468 15.15918313356433
STARLINK-1193,45100,53.0467,0.0003973,15.71924457,350.72282405539954,356.07170118047634,1 45100U 20006BJ  26196.52331912  .00044290  00000+0  33584-3 0  9992,2 45100  53.0467 323.3262 0003973  52.5466 307.5912 15.71924457357263
STARLINK-1143,45179,53.0255,0.0006141,16.13635472,232.8266768139165,240.95125170321808,1 45179U 20012B   26196.79851071  .00647052  24766-3  52364-3 0  9998,2 45179  53.0255  44.7989 0006141 261.5004  98.5335 16.13635472356206
STARLINK-1202,45183,53.1535,0.0004755,15.37682633,449.7157358437071,456.21211282274817,1 45183U 20012F   26196.34299334  .00031847  00000+0  85485-3 0  9992,2 45183  53.1535 163.7623 0004755  30.9714 329.1570 15.37682633354539
STARLINK-1216,45185,53.155,0.0004096,15.38197444,448.64226850165323,454.2370577040674,1 45185U 20012H   26196.31268300  .00010741  00000+0  29119-3 0  9992,2 45185  53.1550 163.6605 0004096  29.9462 330.1776 15.38197444354478
STARLINK-1225,45187,53.1557,0.0004956,15.38168388,448.1408891457777,454.9104507842476,1 45187U 20012K   26196.63609133  .00032768  00000+0  86540-3 0  9996,2 45187  53.1557 162.6020 0004956  37.0267 323.1079 15.38168388354568
STARLINK-1230,45189,53.1535,0.0004673,15.38084243,448.5831398685241,454.96637539720723,1 45189U 20012M   26196.91065286  .00030301  00000+0  80350-3 0  9998,2 45189  53.1535 161.4191 0004673  37.1939 322.9388 15.38084243351839
